[
    {
        "Altitude(m)": 554979.4833346455,
        "Argument of Periapsis(deg)": 0.033114955553567506,
        "Eccentricity": 0.0,
        "Inclination(deg)": 53.0,
        "Latitude(deg)": -4.794028622308183,
        "Longitude(deg)": 127.4086302888614,
        "Mean Anomaly(deg)": -5.905535662112116,
        "RAAN(deg)": 234.95071684264005,
        "Satellite Name": "Starlink Shell 1 1052",
        "Satellite Number": 1052,
        "Semi-Major Axis(m)": 6931778.249405717,
        "Time(s)": 950
    },
    {
        "Altitude(m)": 554889.3605664133,
        "Argument of Periapsis(deg)": 0.03346353403307874,
        "Eccentricity": 0.0,
        "Inclination(deg)": 53.0,
        "Latitude(deg)": -4.2911084586036745,
        "Longitude(deg)": 127.74629092977541,
        "Mean Anomaly(deg)": -5.278704458555268,
        "RAAN(deg)": 234.9501980725626,
        "Satellite Name": "Starlink Shell 1 1052",
        "Satellite Number": 1052,
        "Semi-Major Axis(m)": 6931778.249405717,
        "Time(s)": 960
    },
    {
        "Altitude(m)": 554801.9186272508,
        "Argument of Periapsis(deg)": 0.03381211251258998,
        "Eccentricity": 0.0,
        "Inclination(deg)": 53.0,
        "Latitude(deg)": -3.7879826049563308,
        "Longitude(deg)": 128.08346474488283,
        "Mean Anomaly(deg)": -4.651873254998622,
        "RAAN(deg)": 234.94967930248512,
        "Satellite Name": "Starlink Shell 1 1052",
        "Satellite Number": 1052,
        "Semi-Major Axis(m)": 6931778.249405717,
        "Time(s)": 970
    },
    {
        "Altitude(m)": 554717.1762811687,
        "Argument of Periapsis(deg)": 0.034160690992101214,
        "Eccentricity": 0.0,
        "Inclination(deg)": 53.0,
        "Latitude(deg)": -3.284674301213737,
        "Longitude(deg)": 128.4202100246015,
        "Mean Anomaly(deg)": -4.025042051441927,
        "RAAN(deg)": 234.94916053240763,
        "Satellite Name": "Starlink Shell 1 1052",
        "Satellite Number": 1052,
        "Semi-Major Axis(m)": 6931778.249405717,
        "Time(s)": 980
    },
    {
        "Altitude(m)": 554635.150965316,
        "Argument of Periapsis(deg)": 0.034509269471612446,
        "Eccentricity": 0.0,
        "Inclination(deg)": 53.0,
        "Latitude(deg)": -2.7812067024677103,
        "Longitude(deg)": 128.75658537923914,
        "Mean Anomaly(deg)": -3.398210847885181,
        "RAAN(deg)": 234.94864176233017,
        "Satellite Name": "Starlink Shell 1 1052",
        "Satellite Number": 1052,
        "Semi-Major Axis(m)": 6931778.249405717,
        "Time(s)": 990
    }
]